GLOBALSTAR M023 [+]     
1 25621U 99004A   24049.85504900 -.00000093  00000+0  60849-4 0  9991
2 25621  52.0104  88.1759 0010613 134.7594  36.3570 12.62448002154555
GLOBALSTAR M040 [-]     
1 25622U 99004B   24049.93757073 -.00000067  00000+0  20325-3 0  9997
2 25622  51.9914  91.3699 0000941  78.4012 351.6551 12.61966842154114
GLOBALSTAR M036 [-]     
1 25623U 99004C   24050.08328670 -.00000063  00000+0  28678-3 0  9998
2 25623  51.9964  76.2668 0011648 202.5683 171.4952 11.86560627121493
GLOBALSTAR M038 [-]     
1 25624U 99004D   24049.64734870 -.00000070  00000+0  20858-3 0  9992
2 25624  51.9993  26.9474 0001976 119.1527  52.4127 12.32493244142628
GLOBALSTAR M022 [-]     
1 25649U 99012A   24050.07490075 -.00000057  00000+0  35860-3 0  9997
2 25649  52.0030 166.9132 0001732 287.5791 243.8582 12.02477857118216
GLOBALSTAR M041 [-]     
1 25650U 99012B   24050.17438620 -.00000133  00000+0 -61003-3 0  9992
2 25650  52.0042  33.3369 0002470  75.9895 284.1216 11.96655779120582
GLOBALSTAR M046 [-]     
1 25651U 99012C   24049.97111047 -.00000052  00000+0  40325-3 0  9993
2 25651  52.0044 135.0040 0001908  25.0102 146.4440 12.09383006125077
GLOBALSTAR M037 [+]     
1 25652U 99012D   24049.89062559 -.00000063  00000+0  22615-3 0  9992
2 25652  51.9981 218.8718 0002017 162.7872   2.1737 12.62396438150104
